     2.10           NAVIGATION DATA                         RINEX VERSION / TYPE
GS10 V12.00                             2023 11 30 16:43    PGM / RUN BY / DATE 
    2.9802D-08  7.4506D-09 -1.1921D-07  1.1921D-07          ION ALPHA           
    1.4950D+05 -1.8022D+05  0.0000D+00  1.3107D+05          ION BETA            
    2.793967723846D-09 7.105427357601D-15   503808     2290 DELTA-UTC: A0,A1,T,W
    18                                                      LEAP SECONDS        
                                                            END OF HEADER       
16 23 11 29 10 00  0.0-4.135244525969D-04 6.934897101019D-12 0.000000000000D+00
    8.000000000000D+01 6.665625000000D+01 4.091956160685D-09 1.217685830074D+00
    3.660097718239D-06 1.372023706790D-02 1.125968992710D-05 5.153701745987D+03
    2.952000000000D+05-2.123415470123D-07-3.012748699476D+00 3.911554813385D-08
    9.638643148519D-01 1.683437500000D+02 8.046900678741D-01-7.791395971488D-09
   -5.971677315759D-10 1.000000000000D+00 2.290000000000D+03 0.000000000000D+00
    2.000000000000D+00 0.000000000000D+00-1.024454832077D-08 8.000000000000D+01
    2.880000000000D+05 0.000000000000D+00
17 23 11 29 08 00  0.0 7.227254100144D-04-4.547473508865D-13 0.000000000000D+00
    8.200000000000D+01 1.167500000000D+02 4.356252883990D-09-7.922246628800D-01
    6.122514605522D-06 1.382852380630D-02 4.196539521217D-06 5.153624958038D+03
    2.880000000000D+05-1.862645149231D-07-1.991605399868D+00 8.940696716309D-08
    9.715334434447D-01 3.124687500000D+02-1.368980940717D+00-8.266058600234D-09
    3.600149960697D-10 1.000000000000D+00 2.290000000000D+03 0.000000000000D+00
    2.800000000000D+00 0.000000000000D+00-1.117587089539D-08 8.200000000000D+01
    2.808000000000D+05 0.000000000000D+00
18 23 11 29 11 59 44.0-4.926379770041D-04-1.045918907039D-11 0.000000000000D+00
    7.000000000000D+00-6.025000000000D+01 4.313751113620D-09-7.989023894455D-01
   -3.121793270111D-06 3.833726514131D-03 5.215406417847D-08 5.153645378113D+03
    3.023840000000D+05 2.980232238770D-08-9.870035402706D-01-3.911554813385D-08
    9.742872887134D-01 3.825937500000D+02-3.030077224525D+00-8.308203212869D-09
   -4.785913638228D-11 1.000000000000D+00 2.290000000000D+03 0.000000000000D+00
    2.000000000000D+00 0.000000000000D+00-8.381903171539D-09 2.630000000000D+02
    2.952000000000D+05 0.000000000000D+00
19 23 11 30 17 59 44.0 4.061120562255D-04 5.229594535194D-12 0.000000000000D+00
    3.700000000000D+01 1.271562500000D+02 4.225533153274D-09 2.586921049360D-01
    6.400048732758D-06 9.366852464154D-03 6.232410669327D-06 5.153670753479D+03
    4.103840000000D+05 9.685754776001D-08-1.948136453943D+00-1.359730958939D-07
    9.706582746476D-01 2.694375000000D+02 2.453039662651D+00-8.090694152744D-09
   -2.892977646988D-11 1.000000000000D+00 2.290000000000D+03 0.000000000000D+00
    2.000000000000D+00 0.000000000000D+00-1.536682248116D-08 3.700000000000D+01
    4.056900000000D+05 0.000000000000D+00
20 23 11 29 12 00  0.0 3.991886042058D-04-1.932676241267D-12 0.000000000000D+00
    8.100000000000D+01-1.237500000000D+02 4.600548774180D-09-8.611471808652D-02
   -6.344169378281D-06 4.080956918187D-03 7.340684533119D-06 5.153667554855D+03
    3.024000000000D+05 2.793967723846D-08-1.310680825974D-01 3.725290298462D-08
    9.516226529375D-01 2.350625000000D+02-2.747363911100D+00-8.077836474313D-09
    3.214419607765D-11 1.000000000000D+00 2.290000000000D+03 0.000000000000D+00
    2.000000000000D+00 0.000000000000D+00-8.381903171539D-09 8.100000000000D+01
    2.952000000000D+05 0.000000000000D+00
21 23 11 29 06 00  0.0 1.429975964129D-04-1.023181539495D-12 0.000000000000D+00
    7.800000000000D+01-5.056250000000D+01 4.779127641278D-09-1.876163409440D+00
   -2.225860953331D-06 2.496509463526D-02 1.125037670135D-06 5.153745153427D+03
    2.808000000000D+05-6.053596735001D-07-1.093964421129D+00 3.911554813385D-08
    9.617264107596D-01 3.656250000000D+02-6.781252026138D-01-8.411421798052D-09
    2.107230631757D-11 1.000000000000D+00 2.290000000000D+03 0.000000000000D+00
    2.000000000000D+00 0.000000000000D+00-1.024454832077D-08 7.800000000000D+01
    2.736000000000D+05 0.000000000000D+00
22 23 11 29 12 00  0.0 7.511582225561D-05-6.934897101019D-12 0.000000000000D+00
    9.500000000000D+01 6.003125000000D+01 4.079812797722D-09 1.845791941283D+00
    3.114342689514D-06 1.493158203084D-02 1.025386154652D-05 5.153728313446D+03
    3.024000000000D+05 3.147870302200D-07-3.009507702487D+00 5.960464477539D-08
    9.631458377473D-01 1.775000000000D+02-1.160382524304D+00-7.432809606355D-09
   -4.618049503155D-10 1.000000000000D+00 2.290000000000D+03 0.000000000000D+00
    2.000000000000D+00 0.000000000000D+00-1.117587089539D-08 9.500000000000D+01
    2.952000000000D+05 0.000000000000D+00
23 23 11 29 02 00  0.0 1.069246791303D-04 6.593836587854D-12 0.000000000000D+00
    4.600000000000D+01-1.164687500000D+02 3.856232056115D-09-7.732142779697D-01
   -6.183981895447D-06 3.884811885655D-03 9.620562195778D-06 5.153698299408D+03
    2.664000000000D+05 1.303851604462D-07 1.311428523405D-02-9.126961231232D-08
    9.769760019434D-01 2.058750000000D+02-3.027922052147D+00-7.592459113540D-09
   -5.071639825584D-11 1.000000000000D+00 2.290000000000D+03 0.000000000000D+00
    2.000000000000D+00 0.000000000000D+00-8.381903171539D-09 5.580000000000D+02
    2.592000000000D+05 0.000000000000D+00
24 23 11 30 18 00  0.0-3.832350485027D-04-8.526512829121D-12 0.000000000000D+00
    6.700000000000D+01-2.187500000000D+00 5.406653780260D-09 2.648872433541D+00
   -2.700835466385D-07 1.492519292515D-02 5.936250090599D-06 5.153618034363D+03
    4.104000000000D+05 3.725290298462D-09 2.042574410794D+00-2.346932888031D-07
    9.335345939887D-01 2.495625000000D+02 9.477142668690D-01-8.046763751438D-09
    1.228622605635D-10 1.000000000000D+00 2.290000000000D+03 0.000000000000D+00
    2.000000000000D+00 0.000000000000D+00 2.328306436539D-09 6.700000000000D+01
    4.056900000000D+05 0.000000000000D+00
25 23 11 30 18 00  0.0 4.796134307981D-04 1.591615728103D-12 0.000000000000D+00
    2.300000000000D+01 2.725000000000D+01 4.791628161975D-09 7.667925576793D-01
    1.514330506325D-06 1.151879213285D-02 9.341165423393D-06 5.153647075653D+03
    4.104000000000D+05-1.341104507446D-07-3.116136407315D+00 6.705522537231D-08
    9.520203150332D-01 1.957812500000D+02 1.058227722861D+00-8.142839181937D-09
   -6.228830884380D-10 1.000000000000D+00 2.290000000000D+03 0.000000000000D+00
    2.000000000000D+00 0.000000000000D+00 5.587935447693D-09 2.300000000000D+01
    4.056900000000D+05 0.000000000000D+00
26 23 11 29 10 00  0.0 2.131909132004D-04-2.842170943040D-12 0.000000000000D+00
    4.100000000000D+01 4.656250000000D+01 4.870917178966D-09 2.004718068577D+00
    2.402812242508D-06 8.607013034634D-03 1.071766018867D-05 5.153795783997D+03
    2.952000000000D+05-1.918524503708D-07 3.108863589081D+00-3.352761268616D-08
    9.328277821928D-01 1.608437500000D+02 5.017737460563D-01-8.003190507866D-09
   -6.007393089178D-10 1.000000000000D+00 2.290000000000D+03 0.000000000000D+00
    2.000000000000D+00 0.000000000000D+00 6.984919309616D-09 4.100000000000D+01
    2.880000000000D+05 0.000000000000D+00
27 23 11 29 04 00  0.0-7.632095366716D-05-5.002220859751D-12 0.000000000000D+00
    8.500000000000D+01 1.332500000000D+02 4.368753404686D-09-2.833081486427D+00
    6.688758730888D-06 1.187997683883D-02 4.023313522339D-06 5.153672300339D+03
    2.736000000000D+05 2.980232238770D-08-2.058503054903D+00-1.844018697739D-07
    9.648447815665D-01 3.062812500000D+02 7.424833737671D-01-7.916401178456D-09
    3.075128091428D-10 1.000000000000D+00 2.290000000000D+03 0.000000000000D+00
    2.000000000000D+00 0.000000000000D+00 1.862645149231D-09 8.500000000000D+01
    2.664000000000D+05 0.000000000000D+00
28 23 11 30 18 00  0.0-5.843630060554D-05-9.322320693173D-12 0.000000000000D+00
    8.300000000000D+01 4.687500000000D-01 4.961278085718D-09 2.205290341480D-01
    1.564621925354D-07 7.839758181944D-04 6.008893251419D-06 5.153784496307D+03
    4.104000000000D+05 5.215406417847D-08 2.101357717138D+00 3.539025783539D-08
    9.610603661019D-01 2.637187500000D+02 1.561486180087D+00-8.089622679541D-09
    5.250218692682D-11 1.000000000000D+00 2.290000000000D+03 0.000000000000D+00
    2.000000000000D+00 6.300000000000D+01-9.313225746155D-09 3.390000000000D+02
    4.056900000000D+05 0.000000000000D+00
29 23 11 30 18 00  0.0-6.100432947278D-04 2.273736754432D-13 0.000000000000D+00
    9.700000000000D+01 1.141875000000D+02 4.120885937154D-09-1.899992435843D+00
    5.878508090973D-06 2.516369801015D-03 6.269663572311D-06 5.153682901382D+03
    4.104000000000D+05-4.284083843231D-08-1.978014700732D+00 0.000000000000D+00
    9.738843279285D-01 2.651562500000D+02 2.565133375918D+00-7.884256982379D-09
    1.642925577302D-11 1.000000000000D+00 2.290000000000D+03 0.000000000000D+00
    2.800000000000D+00 0.000000000000D+00-1.024454832077D-08 9.700000000000D+01
    4.056900000000D+05 0.000000000000D+00
30 23 11 29 12 00  0.0-4.630601033568D-04 4.206412995700D-12 0.000000000000D+00
    8.500000000000D+01-1.050000000000D+01 5.436297872199D-09-1.671570825532D+00
   -6.407499313354D-07 6.608011433855D-03 5.461275577545D-06 5.153719184875D+03
    3.024000000000D+05 7.450580596924D-08 2.140725540463D+00-4.842877388000D-08
    9.351004488357D-01 2.588125000000D+02-2.552734700470D+00-8.269273019842D-09
   -2.260808457461D-10 1.000000000000D+00 2.290000000000D+03 0.000000000000D+00
    2.000000000000D+00 0.000000000000D+00 3.725290298462D-09 8.500000000000D+01
    2.952000000000D+05 0.000000000000D+00
